STARLINK-36270          
1 67200U 25304J   26009.83334490  .00083675  00000+0  18971-2 0  9996
2 67200  69.9999 328.8032 0003488 274.5932 315.5042 15.42655009  4987
STARLINK-36262          
1 67201U 25304K   26009.83334490  .00081588  00000+0  18493-2 0  9997
2 67201  70.0000 328.7516 0003138 261.8542  13.2057 15.42672471  4988
STARLINK-36263          
1 67202U 25304L   26009.83334490 -.02409189  00000+0 -57923-1 0  9993
2 67202  69.9998 328.7010 0003757 257.5893  61.3037 15.44634014  4984
STARLINK-36224          
1 67203U 25304M   26009.44918019 -.00124843  00000+0 -20827-2 0  9999
2 67203  70.0000 329.7222 0003406 278.8889  81.1912 15.52192810  4861
STARLINK-36185          
1 67204U 25304N   26009.44878040  .00082419  00000+0  13277-2 0  9990
2 67204  70.0000 329.7204 0003078 273.4663  86.6172 15.52536957  4860
STARLINK-36197          
1 67205U 25304P   26009.44843743  .00050135  00000+0  81172-3 0  9993
2 67205  70.0000 329.7192 0003279 264.1867  95.8946 15.52546433  4831
STARLINK-36056          
1 67206U 25304Q   26009.44809505  .00053160  00000+0  86022-3 0  9992
2 67206  70.0002 329.7178 0003288 270.6634  89.4176 15.52545803  4836
STARLINK-36225          
1 67207U 25304R   26009.44775530  .00064408  00000+0  10404-2 0  9990
2 67207  70.0000 329.7167 0003231 273.9274  86.1543 15.52539004  4868
STARLINK-36265          
1 67208U 25304S   26009.83334490  .00082680  00000+0  18741-2 0  9994
2 67208  69.9999 328.7382 0002948 262.3388  23.7283 15.42667479  4981
STARLINK-36226          
1 67209U 25304T   26009.83334490 -.01973651  00000+0 -48099-1 0  9993
2 67209  69.9999 328.6871 0003700 255.5405  74.8127 15.44108563  4985
STARLINK-36173          
1 67210U 25304U   26009.44681211 -.00183307  00000+0 -31027-2 0  9992
2 67210  70.0000 329.7126 0002426 266.2083  93.8827 15.52008868  4864
STARLINK-36280          
1 67211U 25304V   26009.44638175  .00081465  00000+0  13118-2 0  9995
2 67211  69.9999 329.7109 0003392 268.6214  91.4585 15.52552290  4863
